start=new Date('2022-07-31T00:00:00.000Z').valueOf();
sats=[{"LAUNCH_DATE":"2021-05-09","CLASSIFICATION_TYPE":"U","ELEMENT_SET_NO":"999","APOAPSIS":"548.353","RA_OF_ASC_NODE":"347.8421","REV_AT_EPOCH":"6785","GP_ID":"209227041","FILE":"3525638","MEAN_MOTION":"15.06397808","MEAN_ELEMENT_THEORY":"SGP4","PERIOD":"95.592","MEAN_MOTION_DOT":"0.00001073","PERIAPSIS":"546.088","ARG_OF_PERICENTER":"66.9132","TIME_SYSTEM":"UTC","TLE_LINE2":"2 48470  53.0559 347.8421 0001635  66.9132 293.2029 15.06397808 67853","OBJECT_NAME":"STARLINK-2675","EPHEMERIS_TYPE":"0","OBJECT_TYPE":"PAYLOAD","CENTER_NAME":"EARTH","MEAN_MOTION_DDOT":"0.0000000000000","COUNTRY_CODE":"US","NORAD_CAT_ID":"48470","SEMIMAJOR_AXIS":"6925.355","OBJECT_ID":"2021-040AU","BSTAR":"0.00009093900000","EPOCH":"2022-07-30T19:14:07.415808","TLE_LINE1":"1 48470U 21040AU  22211.80147472  .00001073  00000-0  90939-4 0  9996","DECAY_DATE":null,"ECCENTRICITY":"0.00016350","REF_FRAME":"TEME","SITE":"AFETR","RCS_SIZE":"LARGE","MEAN_ANOMALY":"293.2029","INCLINATION":"53.0559"},{"FILE":"3525638","GP_ID":"209225789","REV_AT_EPOCH":"6785","MEAN_MOTION":"15.06391147","PERIOD":"95.593","MEAN_ELEMENT_THEORY":"SGP4","MEAN_MOTION_DOT":"-0.00001164","PERIAPSIS":"546.151","ARG_OF_PERICENTER":"87.4788","TIME_SYSTEM":"UTC","LAUNCH_DATE":"2021-05-09","CLASSIFICATION_TYPE":"U","ELEMENT_SET_NO":"999","APOAPSIS":"548.330","RA_OF_ASC_NODE":"347.8737","CENTER_NAME":"EARTH","MEAN_MOTION_DDOT":"0.0000000000000","COUNTRY_CODE":"US","TLE_LINE2":"2 48471  53.0559 347.8737 0001573  87.4788 272.6381 15.06391147 67852","OBJECT_NAME":"STARLINK-2684","EPHEMERIS_TYPE":"0","OBJECT_TYPE":"PAYLOAD","NORAD_CAT_ID":"48471","SEMIMAJOR_AXIS":"6925.376","OBJECT_ID":"2021-040AV","EPOCH":"2022-07-30T19:04:52.732128","BSTAR":"-0.00005927200000","TLE_LINE1":"1 48471U 21040AV  22211.79505477 -.00001164  00000-0 -59272-4 0  9996","ECCENTRICITY":"0.00015730","DECAY_DATE":null,"SITE":"AFETR","RCS_SIZE":"LARGE","MEAN_ANOMALY":"272.6381","INCLINATION":"53.0559","REF_FRAME":"TEME"},{"APOAPSIS":"548.202","RA_OF_ASC_NODE":"347.9708","ELEMENT_SET_NO":"999","LAUNCH_DATE":"2021-05-09","CLASSIFICATION_TYPE":"U","TIME_SYSTEM":"UTC","PERIAPSIS":"546.230","ARG_OF_PERICENTER":"81.3147","MEAN_ELEMENT_THEORY":"SGP4","PERIOD":"95.592","MEAN_MOTION_DOT":"0.00000477","GP_ID":"209226039","FILE":"3525638","MEAN_MOTION":"15.06399190","REV_AT_EPOCH":"6784","OBJECT_TYPE":"PAYLOAD","OBJECT_NAME":"STARLINK-2722","EPHEMERIS_TYPE":"0","TLE_LINE2":"2 48472  53.0559 347.9708 0001424  81.3147 278.8004 15.06399190 67844","COUNTRY_CODE":"US","MEAN_MOTION_DDOT":"0.0000000000000","CENTER_NAME":"EARTH","DECAY_DATE":null,"ECCENTRICITY":"0.00014240","TLE_LINE1":"1 48472U 21040AW  22211.77662162  .00000477  00000-0  50884-4 0  9994","OBJECT_ID":"2021-040AW","BSTAR":"0.00005088400000","EPOCH":"2022-07-30T18:38:20.107968","NORAD_CAT_ID":"48472","SEMIMAJOR_AXIS":"6925.351","REF_FRAME":"TEME","INCLINATION":"53.0559","MEAN_ANOMALY":"278.8004","RCS_SIZE":"LARGE","SITE":"AFETR"},{"LAUNCH_DATE":"2021-05-09","CLASSIFICATION_TYPE":"U","ELEMENT_SET_NO":"999","APOAPSIS":"548.103","RA_OF_ASC_NODE":"347.7872","GP_ID":"209227291","FILE":"3525638","REV_AT_EPOCH":"6785","MEAN_MOTION":"15.06405735","MEAN_MOTION_DOT":"0.00001278","PERIOD":"95.592","MEAN_ELEMENT_THEORY":"SGP4","PERIAPSIS":"546.289","ARG_OF_PERICENTER":"70.9884","TIME_SYSTEM":"UTC","TLE_LINE2":"2 48473  53.0546 347.7872 0001310  70.9884 289.1247 15.06405735 67855","OBJECT_NAME":"STARLINK-2658","EPHEMERIS_TYPE":"0","OBJECT_TYPE":"PAYLOAD","CENTER_NAME":"EARTH","COUNTRY_CODE":"US","MEAN_MOTION_DDOT":"0.0000000000000","NORAD_CAT_ID":"48473","SEMIMAJOR_AXIS":"6925.331","OBJECT_ID":"2021-040AX","EPOCH":"2022-07-30T19:31:24.225312","BSTAR":"0.00010467000000","TLE_LINE1":"1 48473U 21040AX  22211.81347483  .00001278  00000-0  10467-3 0  9998","DECAY_DATE":null,"ECCENTRICITY":"0.00013100","REF_FRAME":"TEME","RCS_SIZE":"LARGE","SITE":"AFETR","MEAN_ANOMALY":"289.1247","INCLINATION":"53.0546"},{"OBJECT_TYPE":"PAYLOAD","OBJECT_NAME":"STARLINK-2697","EPHEMERIS_TYPE":"0","TLE_LINE2":"2 48474  53.0565 347.9544 0001393  90.5386 269.5763 15.06395062 67846","COUNTRY_CODE":"US","MEAN_MOTION_DDOT":"0.0000000000000","CENTER_NAME":"EARTH","APOAPSIS":"548.193","RA_OF_ASC_NODE":"347.9544","ELEMENT_SET_NO":"999","CLASSIFICATION_TYPE":"U","LAUNCH_DATE":"2021-05-09","TIME_SYSTEM":"UTC","PERIAPSIS":"546.264","ARG_OF_PERICENTER":"90.5386","PERIOD":"95.592","MEAN_MOTION_DOT":"0.00000376","MEAN_ELEMENT_THEORY":"SGP4","FILE":"3525638","GP_ID":"209227542","MEAN_MOTION":"15.06395062","REV_AT_EPOCH":"6784","REF_FRAME":"TEME","INCLINATION":"53.0565","MEAN_ANOMALY":"269.5763","RCS_SIZE":"LARGE","SITE":"AFETR","DECAY_DATE":null,"ECCENTRICITY":"0.00013930","TLE_LINE1":"1 48474U 21040AY  22211.78031173  .00000376  00000-0  44170-4 0  9998","OBJECT_ID":"2021-040AY","BSTAR":"0.00004417000000","EPOCH":"2022-07-30T18:43:38.933472","NORAD_CAT_ID":"48474","SEMIMAJOR_AXIS":"6925.364"},{"ELEMENT_SET_NO":"999","CLASSIFICATION_TYPE":"U","LAUNCH_DATE":"2021-05-09","APOAPSIS":"548.248","RA_OF_ASC_NODE":"347.7903","PERIOD":"95.593","MEAN_MOTION_DOT":"-0.00001108","MEAN_ELEMENT_THEORY":"SGP4","GP_ID":"209226290","FILE":"3525638","MEAN_MOTION":"15.06392929","REV_AT_EPOCH":"6785","TIME_SYSTEM":"UTC","PERIAPSIS":"546.222","ARG_OF_PERICENTER":"66.3863","TLE_LINE2":"2 48475  53.0572 347.7903 0001463  66.3863 293.7280 15.06392929 67854","OBJECT_TYPE":"PAYLOAD","OBJECT_NAME":"STARLINK-2619","EPHEMERIS_TYPE":"0","CENTER_NAME":"EARTH","COUNTRY_CODE":"US","MEAN_MOTION_DDOT":"0.0000000000000","OBJECT_ID":"2021-040AZ","BSTAR":"-0.00005553000000","EPOCH":"2022-07-30T19:36:43.538112","NORAD_CAT_ID":"48475","SEMIMAJOR_AXIS":"6925.370","DECAY_DATE":null,"ECCENTRICITY":"0.00014630","TLE_LINE1":"1 48475U 21040AZ  22211.81717058 -.00001108  00000-0 -55530-4 0  9994","REF_FRAME":"TEME","RCS_SIZE":"LARGE","SITE":"AFETR","INCLINATION":"53.0572","MEAN_ANOMALY":"293.7280"},{"REF_FRAME":"TEME","MEAN_ANOMALY":"290.1420","INCLINATION":"53.0566","RCS_SIZE":"LARGE","SITE":"AFETR","TLE_LINE1":"1 48476U 21040BA  22211.77293113  .00000258  00000-0  36228-4 0  9997","ECCENTRICITY":"0.00012990","DECAY_DATE":null,"NORAD_CAT_ID":"48476","SEMIMAJOR_AXIS":"6925.344","OBJECT_ID":"2021-040BA","EPOCH":"2022-07-30T18:33:01.249632","BSTAR":"0.00003622800000","OBJECT_NAME":"STARLINK-2723","EPHEMERIS_TYPE":"0","OBJECT_TYPE":"PAYLOAD","TLE_LINE2":"2 48476  53.0566 347.9732 0001299  69.9709 290.1420 15.06401471 67844","COUNTRY_CODE":"US","MEAN_MOTION_DDOT":"0.0000000000000","CENTER_NAME":"EARTH","APOAPSIS":"548.109","RA_OF_ASC_NODE":"347.9732","CLASSIFICATION_TYPE":"U","LAUNCH_DATE":"2021-05-09","ELEMENT_SET_NO":"999","PERIAPSIS":"546.309","ARG_OF_PERICENTER":"69.9709","TIME_SYSTEM":"UTC","MEAN_MOTION":"15.06401471","GP_ID":"209226540","FILE":"3525638","REV_AT_EPOCH":"6784","MEAN_MOTION_DOT":"0.00000258","PERIOD":"95.592","MEAN_ELEMENT_THEORY":"SGP4"},{"MEAN_MOTION_DOT":"-0.00000042","PERIOD":"95.593","MEAN_ELEMENT_THEORY":"SGP4","REV_AT_EPOCH":"6784","GP_ID":"209226791","FILE":"3525638","MEAN_MOTION":"15.06389658","TIME_SYSTEM":"UTC","PERIAPSIS":"546.224","ARG_OF_PERICENTER":"66.8242","ELEMENT_SET_NO":"999","LAUNCH_DATE":"2021-05-09","CLASSIFICATION_TYPE":"U","APOAPSIS":"548.267","RA_OF_ASC_NODE":"348.0573","CENTER_NAME":"EARTH","COUNTRY_CODE":"US","MEAN_MOTION_DDOT":"0.0000000000000","TLE_LINE2":"2 48478  53.0549 348.0573 0001475  66.8242 293.2902 15.06389658 67847","OBJECT_TYPE":"PAYLOAD","OBJECT_NAME":"STARLINK-2728","EPHEMERIS_TYPE":"0","OBJECT_ID":"2021-040BC","EPOCH":"2022-07-30T18:11:48.049728","BSTAR":"0.00001607400000","NORAD_CAT_ID":"48478","SEMIMAJOR_AXIS":"6925.380","DECAY_DATE":null,"ECCENTRICITY":"0.00014750","TLE_LINE1":"1 48478U 02032DG  22211.75819502 -.00000042  00000-0  16074-4 0  9992","RCS_SIZE":"LARGE","SITE":"AFETR","INCLINATION":"53.0549","MEAN_ANOMALY":"293.2902","REF_FRAME":"TEME"},{"SEMIMAJOR_AXIS":"6925.383","NORAD_CAT_ID":"48479","EPOCH":"2022-07-30T18:06:29.825568","BSTAR":"0.00004127000000","OBJECT_ID":"2021-040BD","TLE_LINE1":"1 48479U 21040BD  22211.75451187  .00000333  00000-0  41270-4 0  9992","DECAY_DATE":null,"ECCENTRICITY":"0.00013300","SITE":"AFETR","RCS_SIZE":"LARGE","MEAN_ANOMALY":"276.2773","INCLINATION":"53.0566","REF_FRAME":"TEME","GP_ID":"209227042","FILE":"3525638","MEAN_MOTION":"15.06388614","REV_AT_EPOCH":"6784","MEAN_MOTION_DOT":"0.00000333","PERIOD":"95.593","MEAN_ELEMENT_THEORY":"SGP4","ARG_OF_PERICENTER":"83.8367","PERIAPSIS":"546.327","TIME_SYSTEM":"UTC","LAUNCH_DATE":"2021-05-09","CLASSIFICATION_TYPE":"U","ELEMENT_SET_NO":"999","RA_OF_ASC_NODE":"348.0699","APOAPSIS":"548.170","CENTER_NAME":"EARTH","MEAN_MOTION_DDOT":"0.0000000000000","COUNTRY_CODE":"US","TLE_LINE2":"2 48479  53.0566 348.0699 0001330  83.8367 276.2773 15.06388614 67841","EPHEMERIS_TYPE":"0","OBJECT_NAME":"STARLINK-2755","OBJECT_TYPE":"PAYLOAD"},{"ELEMENT_SET_NO":"999","LAUNCH_DATE":"2021-05-09","CLASSIFICATION_TYPE":"U","APOAPSIS":"548.175","RA_OF_ASC_NODE":"358.0017","MEAN_ELEMENT_THEORY":"SGP4","PERIOD":"95.592","MEAN_MOTION_DOT":"0.00000194","MEAN_MOTION":"15.06402419","GP_ID":"209225790","FILE":"3525638","REV_AT_EPOCH":"6770","TIME_SYSTEM":"UTC","PERIAPSIS":"546.237","ARG_OF_PERICENTER":"72.6684","TLE_LINE2":"2 48480  53.0561 358.0017 0001399  72.6684 287.4458 15.06402419 67705","OBJECT_TYPE":"PAYLOAD","OBJECT_NAME":"STARLINK-2690","EPHEMERIS_TYPE":"0","CENTER_NAME":"EARTH","COUNTRY_CODE":"US","MEAN_MOTION_DDOT":"0.0000000000000","OBJECT_ID":"2021-040BE","BSTAR":"0.00003194500000","EPOCH":"2022-07-30T18:25:01.329600","NORAD_CAT_ID":"48480","SEMIMAJOR_AXIS":"6925.341","DECAY_DATE":null,"ECCENTRICITY":"0.00013990","TLE_LINE1":"1 48480U 21040BE  22211.76737650  .00000194  00000-0  31945-4 0  9990","REF_FRAME":"TEME","RCS_SIZE":"LARGE","SITE":"AFETR","INCLINATION":"53.0561","MEAN_ANOMALY":"287.4458"}];
